{
    "links": {
        "self": "http://www.neowsapp.com/rest/v1/neo/3791335?api_key=iIulBulltgU6a56xZRHN4H3l9WmuAYTsLGpBGhQ2"
    },
    "id": "3791335",
    "neo_reference_id": "3791335",
    "name": "(2017 XM60)",
    "designation": "2017 XM60",
    "nasa_jpl_url": "http://ssd.jpl.nasa.gov/sbdb.cgi?sstr=3791335",
    "absolute_magnitude_h": 23.1,
    "estimated_diameter": {
        "kilometers": {
            "estimated_diameter_min": 0.063760979,
            "estimated_diameter_max": 0.1425738833
        },
        "meters": {
            "estimated_diameter_min": 63.7609789875,
            "estimated_diameter_max": 142.5738833281
        },
        "miles": {
            "estimated_diameter_min": 0.0396192233,
            "estimated_diameter_max": 0.0885912765
        },
        "feet": {
            "estimated_diameter_min": 209.1895703015,
            "estimated_diameter_max": 467.7620993781
        }
    },
    "is_potentially_hazardous_asteroid": false,
    "close_approach_data": [
        {
            "close_approach_date": "2017-06-30",
            "close_approach_date_full": "2017-Jun-30 00:17",
            "epoch_date_close_approach": 1498781820000,
            "relative_velocity": {
                "kilometers_per_second": "16.8178938346",
                "kilometers_per_hour": "60544.4178044729",
                "miles_per_hour": "37619.9467185626"
            },
            "miss_distance": {
                "astronomical": "0.4398105949",
                "lunar": "171.0863214161",
                "kilometers": "65794728.200472863",
                "miles": "40882948.3362689894"
            },
            "orbiting_body": "Earth"
        },
        {
            "close_approach_date": "2017-12-04",
            "close_approach_date_full": "2017-Dec-04 17:39",
            "epoch_date_close_approach": 1512409140000,
            "relative_velocity": {
                "kilometers_per_second": "19.877924557",
                "kilometers_per_hour": "71560.5284052223",
                "miles_per_hour": "44464.9294415672"
            },
            "miss_distance": {
                "astronomical": "0.180674119",
                "lunar": "70.282232291",
                "kilometers": "27028463.36652653",
                "miles": "16794708.354984914"
            },
            "orbiting_body": "Earth"
        }
    ],
    "orbital_data": {
        "orbit_id": "2",
        "orbit_determination_date": "2017-12-22 06:29:40",
        "first_observation_date": "2017-12-13",
        "last_observation_date": "2017-12-21",
        "data_arc_in_days": 8,
        "observations_used": 24,
        "orbit_uncertainty": "9",
        "minimum_orbit_intersection": ".172908",
        "jupiter_tisserand_invariant": "4.169",
        "epoch_osculation": "2458101.5",
        "eccentricity": ".3699776477829873",
        "semi_major_axis": "1.568399208437516",
        "inclination": "33.38956469755929",
        "ascending_node_longitude": "258.4136036556041",
        "orbital_period": "717.4363028326885",
        "perihelion_distance": ".9881265585151049",
        "perihelion_argument": "112.7657329893859",
        "aphelion_distance": "2.148671858359928",
        "perihelion_time": "2458038.868945088987",
        "mean_anomaly": "31.42743081015076",
        "mean_motion": ".501786707166329",
        "equinox": "J2000",
        "orbit_class": {
            "orbit_class_type": "APO",
            "orbit_class_description": "Near-Earth asteroid orbits which cross the Earth’s orbit similar to that of 1862 Apollo",
            "orbit_class_range": "a (semi-major axis) > 1.0 AU; q (perihelion) < 1.017 AU"
        }
    },
    "is_sentry_object": false
}